JINJUSAT-1B             
1 63210U 25052A   26068.66363707  .00019955  00000+0  68430-3 0  9998
2 63210  97.4113 325.4613 0005550  82.1930 277.9941 15.30194857 54866
STARLINK-35724          
1 66279U 25247Q   26068.64845164  .00004667  00000+0  16971-3 0  9999
2 66279  53.1588 191.9012 0001136  87.9340 272.1791 15.30175525 21025
